{
  "type": "FeatureCollection",
  "features": [
    {
      "type": "Feature",
      "properties": {
        "norad_id": 34907,
        "name": "COSMOS 2251 DEB",
        "group": "cosmos-2251-debris",
        "lat": -23.602165382248668,
        "lon": -129.6798401826617,
        "alt_km": 442.69832439105085,
        "timestamp": "2025-12-15T04:01:20.847474+00:00",
        "meta_object_name": "COSMOS 2251 DEB",
        "meta_object_id": "1993-036ADC",
        "meta_epoch": "2025-12-13T21:37:21.110592",
        "meta_mean_motion": 15.45090165,
        "meta_eccentricity": 0.00204412,
        "meta_inclination": 73.9706,
        "meta_ra_of_asc_node": 45.8736,
        "meta_arg_of_pericenter": 339.7109,
        "meta_mean_anomaly": 20.3287,
        "meta_ephemeris_type": 0,
        "meta_classification_type": "U",
        "meta_norad_cat_id": 34907,
        "meta_element_set_no": 999,
        "meta_rev_at_epoch": 87991,
        "meta_bstar": 0.0077288199,
        "meta_mean_motion_dot": 0.0038692,
        "meta_mean_motion_ddot": 0,
        "tle_line1": "1 34907U 93036ADC 25347.90093878  .00386920  00000+0  77288-2 0  9990",
        "tle_line2": "2 34907  73.9706  45.8736 0020441 339.7109  20.3287 15.45090165879915"
      },
      "geometry": {
        "type": "Point",
        "coordinates": [
          -129.6798401826617,
          -23.602165382248668
        ]
      }
    },
    {
      "type": "Feature",
      "properties": {
        "norad_id": 34908,
        "name": "COSMOS 2251 DEB",
        "group": "cosmos-2251-debris",
        "lat": 31.875531936392544,
        "lon": 29.43405517242531,
        "alt_km": 736.2385519889222,
        "timestamp": "2025-12-15T04:01:20.847485+00:00",
        "meta_object_name": "COSMOS 2251 DEB",
        "meta_object_id": "1993-036ADD",
        "meta_epoch": "2025-12-13T20:56:40.633728",
        "meta_mean_motion": 14.37402859,
        "meta_eccentricity": 0.00400909,
        "meta_inclination": 74.0595,
        "meta_ra_of_asc_node": 21.5748,
        "meta_arg_of_pericenter": 37.2863,
        "meta_mean_anomaly": 138.1134,
        "meta_ephemeris_type": 0,
        "meta_classification_type": "U",
        "meta_norad_cat_id": 34908,
        "meta_element_set_no": 999,
        "meta_rev_at_epoch": 87295,
        "meta_bstar": 0.00064569198,
        "meta_mean_motion_dot": 1.922e-05,
        "meta_mean_motion_ddot": 0,
        "tle_line1": "1 34908U 93036ADD 25347.87269252  .00001922  00000+0  64569-3 0  9993",
        "tle_line2": "2 34908  74.0595  21.5748 0040090  37.2863 138.1134 14.37402859872950"
      },
      "geometry": {
        "type": "Point",
        "coordinates": [
          29.43405517242531,
          31.875531936392544
        ]
      }
    },
    {
      "type": "Feature",
      "properties": {
        "norad_id": 34909,
        "name": "COSMOS 2251 DEB",
        "group": "cosmos-2251-debris",
        "lat": 19.494493563199764,
        "lon": -114.02505427460432,
        "alt_km": 595.540976569222,
        "timestamp": "2025-12-15T04:01:20.847496+00:00",
        "meta_object_name": "COSMOS 2251 DEB",
        "meta_object_id": "1993-036ADE",
        "meta_epoch": "2025-12-13T12:18:21.051360",
        "meta_mean_motion": 14.77848388,
        "meta_eccentricity": 0.00844579,
        "meta_inclination": 74.0144,
        "meta_ra_of_asc_node": 75.0514,
        "meta_arg_of_pericenter": 210.7068,
        "meta_mean_anomaly": 148.9152,
        "meta_ephemeris_type": 0,
        "meta_classification_type": "U",
        "meta_norad_cat_id": 34909,
        "meta_element_set_no": 999,
        "meta_rev_at_epoch": 66863,
        "meta_bstar": 0.000958712,
        "meta_mean_motion_dot": 7.287e-05,
        "meta_mean_motion_ddot": 0,
        "tle_line1": "1 34909U 93036ADE 25347.51274365  .00007287  00000+0  95871-3 0  9996",
        "tle_line2": "2 34909  74.0144  75.0514 0084457 210.7068 148.9152 14.77848388668638"
      },
      "geometry": {
        "type": "Point",
        "coordinates": [
          -114.02505427460432,
          19.494493563199764
        ]
      }
    },
    {
      "type": "Feature",
      "properties": {
        "norad_id": 34910,
        "name": "COSMOS 2251 DEB",
        "group": "cosmos-2251-debris",
        "lat": -21.088798178370027,
        "lon": 91.18871679615415,
        "alt_km": 1296.5184640793414,
        "timestamp": "2025-12-15T04:01:20.847506+00:00",
        "meta_object_name": "COSMOS 2251 DEB",
        "meta_object_id": "1993-036ADF",
        "meta_epoch": "2025-12-14T02:07:32.801376",
        "meta_mean_motion": 13.37686817,
        "meta_eccentricity": 0.0468001,
        "meta_inclination": 73.8761,
        "meta_ra_of_asc_node": 99.2955,
        "meta_arg_of_pericenter": 217.9911,
        "meta_mean_anomaly": 321.1168,
        "meta_ephemeris_type": 0,
        "meta_classification_type": "U",
        "meta_norad_cat_id": 34910,
        "meta_element_set_no": 999,
        "meta_rev_at_epoch": 81542,
        "meta_bstar": 0.0016260876,
        "meta_mean_motion_dot": 1.586e-05,
        "meta_mean_motion_ddot": 0,
        "tle_line1": "1 34910U 93036ADF 25348.08857409  .00001586  00000+0  16261-2 0  9998",
        "tle_line2": "2 34910  73.8761  99.2955 0468001 217.9911 321.1168 13.37686817815421"
      },
      "geometry": {
        "type": "Point",
        "coordinates": [
          91.18871679615415,
          -21.088798178370027
        ]
      }
    },
    {
      "type": "Feature",
      "properties": {
        "norad_id": 34911,
        "name": "COSMOS 2251 DEB",
        "group": "cosmos-2251-debris",
        "lat": 73.06527584202315,
        "lon": -9.904842611975273,
        "alt_km": 688.1648562074306,
        "timestamp": "2025-12-15T04:01:20.847517+00:00",
        "meta_object_name": "COSMOS 2251 DEB",
        "meta_object_id": "1993-036ADG",
        "meta_epoch": "2025-12-14T03:35:48.355008",
        "meta_mean_motion": 14.59375092,
        "meta_eccentricity": 0.00836609,
        "meta_inclination": 74.0408,
        "meta_ra_of_asc_node": 242.0568,
        "meta_arg_of_pericenter": 7.0884,
        "meta_mean_anomaly": 142.9109,
        "meta_ephemeris_type": 0,
        "meta_classification_type": "U",
        "meta_norad_cat_id": 34911,
        "meta_element_set_no": 999,
        "meta_rev_at_epoch": 88607,
        "meta_bstar": 0.00021494276,
        "meta_mean_motion_dot": 1.036e-05,
        "meta_mean_motion_ddot": 0,
        "tle_line1": "1 34911U 93036ADG 25348.14986522  .00001036  00000+0  21494-3 0  9990",
        "tle_line2": "2 34911  74.0408 242.0568 0083660   7.0884 142.9109 14.59375092886070"
      },
      "geometry": {
        "type": "Point",
        "coordinates": [
          -9.904842611975273,
          73.06527584202315
        ]
      }
    },
    {
      "type": "Feature",
      "properties": {
        "norad_id": 34913,
        "name": "COSMOS 2251 DEB",
        "group": "cosmos-2251-debris",
        "lat": -57.799615666352324,
        "lon": 125.10006869473331,
        "alt_km": 795.0563157782844,
        "timestamp": "2025-12-15T04:01:20.847527+00:00",
        "meta_object_name": "COSMOS 2251 DEB",
        "meta_object_id": "1993-036ADJ",
        "meta_epoch": "2025-12-13T12:56:38.472288",
        "meta_mean_motion": 14.34637945,
        "meta_eccentricity": 0.00203757,
        "meta_inclination": 74.0284,
        "meta_ra_of_asc_node": 281.0321,
        "meta_arg_of_pericenter": 30.7723,
        "meta_mean_anomaly": 84.8293,
        "meta_ephemeris_type": 0,
        "meta_classification_type": "U",
        "meta_norad_cat_id": 34913,
        "meta_element_set_no": 999,
        "meta_rev_at_epoch": 65199,
        "meta_bstar": 8.4132523e-05,
        "meta_mean_motion_dot": 2.12e-06,
        "meta_mean_motion_ddot": 0,
        "tle_line1": "1 34913U 93036ADJ 25347.53933417  .00000212  00000+0  84133-4 0  9994",
        "tle_line2": "2 34913  74.0284 281.0321 0020375  30.7723  84.8293 14.34637945651993"
      },
      "geometry": {
        "type": "Point",
        "coordinates": [
          125.10006869473331,
          -57.799615666352324
        ]
      }
    },
    {
      "type": "Feature",
      "properties": {
        "norad_id": 34918,
        "name": "COSMOS 2251 DEB",
        "group": "cosmos-2251-debris",
        "lat": -71.3971657448196,
        "lon": -172.95526433743368,
        "alt_km": 672.9315530932408,
        "timestamp": "2025-12-15T04:01:20.847537+00:00",
        "meta_object_name": "COSMOS 2251 DEB",
        "meta_object_id": "1993-036ADP",
        "meta_epoch": "2025-12-10T06:27:09.237024",
        "meta_mean_motion": 14.6111897,
        "meta_eccentricity": 0.0033898,
        "meta_inclination": 74.0712,
        "meta_ra_of_asc_node": 318.3402,
        "meta_arg_of_pericenter": 286.4186,
        "meta_mean_anomaly": 135.6409,
        "meta_ephemeris_type": 0,
        "meta_classification_type": "U",
        "meta_norad_cat_id": 34918,
        "meta_element_set_no": 999,
        "meta_rev_at_epoch": 65300,
        "meta_bstar": 0.0032517,
        "meta_mean_motion_dot": 0.00016131,
        "meta_mean_motion_ddot": 0,
        "tle_line1": "1 34918U 93036ADP 25344.26885691  .00016131  00000+0  32517-2 0  9990",
        "tle_line2": "2 34918  74.0712 318.3402 0033898 286.4186 135.6409 14.61118970653005"
      },
      "geometry": {
        "type": "Point",
        "coordinates": [
          -172.95526433743368,
          -71.3971657448196
        ]
      }
    }
  ]
}